[{"OBJECT_NAME":"IRIDIUM 176","OBJECT_ID":"2019-002B","EPOCH":"2026-03-09T22:13:37.808256","MEAN_MOTION":14.72260591,"ECCENTRICITY":0.00024416,"INCLINATION":86.6095,"RA_OF_ASC_NODE":35.0232,"ARG_OF_PERICENTER":89.3917,"MEAN_ANOMALY":270.758,"EPHEMERIS_TYPE":0,"CLASSIFICATION_TYPE":"U","NORAD_CAT_ID":43923,"ELEMENT_SET_NO":999,"REV_AT_EPOCH":38464,"BSTAR":0.00020794372,"MEAN_MOTION_DOT":1.336e-5,"MEAN_MOTION_DDOT":0},{"OBJECT_NAME":"ELECTRON KICK STAGE R\/B","OBJECT_ID":"2025-140B","EPOCH":"2026-03-09T22:34:53.317632","MEAN_MOTION":14.73233666,"ECCENTRICITY":0.00147339,"INCLINATION":95.9903,"RA_OF_ASC_NODE":215.4812,"ARG_OF_PERICENTER":162.2619,"MEAN_ANOMALY":197.9111,"EPHEMERIS_TYPE":0,"CLASSIFICATION_TYPE":"U","NORAD_CAT_ID":64692,"ELEMENT_SET_NO":999,"REV_AT_EPOCH":3747,"BSTAR":0.0004270388,"MEAN_MOTION_DOT":2.732e-5,"MEAN_MOTION_DDOT":0}]
